{
"type": "FeatureCollection",
"name": "nonsawah",
"crs": { "type": "name", "properties": { "name": "urn:ogc:def:crs:OGC:1.3:CRS84" } },
"features": [
{"type":"Feature","properties":{"FID":0,"Label":"Non Sawah"},"geometry":{"type":"MultiPolygon","coordinates":[[[[112.7490602,-7.2939447],[112.7490633,-7.294753],[112.7486512,-7.2947991],[112.7485241,-7.2937357],[112.7490602,-7.2939447]]]]}},
{"type":"Feature","properties":{"FID":1,"Label":"Non Sawah"},"geometry":{"type":"MultiPolygon","coordinates":[[[[112.749085,-7.2939539],[112.7494382,-7.2940522],[112.7494847,-7.2947438],[112.7490912,-7.2947438],[112.749085,-7.2939539]]]]}},
{"type":"Feature","properties":{"FID":2,"Label":"Non Sawah"},"geometry":{"type":"MultiPolygon","coordinates":[[[[112.7494453,-7.2940649],[112.7497961,-7.2941885],[112.7498714,-7.2946515],[112.7495148,-7.2947464],[112.7494453,-7.2940649]]]]}},
{"type":"Feature","properties":{"FID":3,"Label":"Non Sawah"},"geometry":{"type":"MultiPolygon","coordinates":[[[[112.7498076,-7.2942029],[112.7500918,-7.2942719],[112.7500744,-7.2944933],[112.7498859,-7.2946314],[112.7498076,-7.2942029]]]]}},
{"type":"Feature","properties":{"FID":4,"Label":"Non Sawah"},"geometry":{"type":"MultiPolygon","coordinates":[[[[112.7481639,-7.2939038],[112.7482567,-7.2939815],[112.7482422,-7.2944301],[112.7478798,-7.2942547],[112.7481639,-7.2939038]]]]}},
{"type":"Feature","properties":{"FID":5,"Label":"Non Sawah"},"geometry":{"type":"MultiPolygon","coordinates":[[[[112.7483233,-7.2936565],[112.7484219,-7.2936968],[112.7484306,-7.2939297],[112.7481929,-7.2938952],[112.7483233,-7.2936565]]]]}},
{"type":"Feature","properties":{"FID":6,"Label":"Non Sawah"},"geometry":{"type":"MultiPolygon","coordinates":[[[[112.7478798,-7.2942834],[112.7482219,-7.2944416],[112.7482016,-7.2947895],[112.7476276,-7.2946457],[112.7478798,-7.2942834]]]]}},
{"type":"Feature","properties":{"FID":7,"Label":"Non Sawah"},"geometry":{"type":"MultiPolygon","coordinates":[[[[112.7482914,-7.2939182],[112.7485292,-7.2939585],[112.7485698,-7.2941943],[112.7482567,-7.2941971],[112.7482914,-7.2939182]]]]}},
{"type":"Feature","properties":{"FID":8,"Label":"Non Sawah"},"geometry":{"type":"MultiPolygon","coordinates":[[[[112.7482567,-7.2942144],[112.748535,-7.2942086],[112.7486045,-7.2945911],[112.7482393,-7.2945623],[112.7482567,-7.2942144]]]]}},
{"type":"Feature","properties":{"FID":9,"Label":"Non Sawah"},"geometry":{"type":"MultiPolygon","coordinates":[[[[112.748219,-7.2945738],[112.7486016,-7.2946026],[112.7486306,-7.2948384],[112.7482422,-7.2947838],[112.748219,-7.2945738]]]]}},
{"type":"Feature","properties":{"FID":10,"Label":"Non Sawah"},"geometry":{"type":"MultiPolygon","coordinates":[[[[112.7475348,-7.294686],[112.7478682,-7.2947694],[112.7477986,-7.295103],[112.7474594,-7.2950282],[112.7475348,-7.294686]]]]}},
{"type":"Feature","properties":{"FID":11,"Label":"Non Sawah"},"geometry":{"type":"MultiPolygon","coordinates":[[[[112.7478769,-7.294778],[112.7482538,-7.2948614],[112.7482074,-7.2952209],[112.7477957,-7.2951403],[112.7478769,-7.294778]]]]}},
{"type":"Feature","properties":{"FID":12,"Label":"Non Sawah"},"geometry":{"type":"MultiPolygon","coordinates":[[[[112.7474333,-7.2950311],[112.7477899,-7.2951116],[112.7477667,-7.2953646],[112.747387,-7.2952697],[112.7474333,-7.2950311]]]]}},
{"type":"Feature","properties":{"FID":13,"Label":"Non Sawah"},"geometry":{"type":"MultiPolygon","coordinates":[[[[112.7477899,-7.2951432],[112.7481987,-7.2952352],[112.7481407,-7.2955889],[112.7477696,-7.2955113],[112.7477899,-7.2951432]]]]}},
{"type":"Feature","properties":{"FID":14,"Label":"Non Sawah"},"geometry":{"type":"MultiPolygon","coordinates":[[[[112.7482712,-7.2948643],[112.7486538,-7.2949045],[112.7486538,-7.295126],[112.7484451,-7.2950886],[112.7484016,-7.2951605],[112.7482538,-7.2951403],[112.7482712,-7.2948643]]]]}},
{"type":"Feature","properties":{"FID":15,"Label":"Non Sawah"},"geometry":{"type":"MultiPolygon","coordinates":[[[[112.748248,-7.295149],[112.7484335,-7.2951806],[112.7484683,-7.295103],[112.7486306,-7.2951288],[112.7485843,-7.2953646],[112.7482364,-7.2952496],[112.748248,-7.295149]]]]}},
{"type":"Feature","properties":{"FID":16,"Label":"Non Sawah"},"geometry":{"type":"MultiPolygon","coordinates":[[[[112.748219,-7.2952697],[112.7485843,-7.2953876],[112.7485205,-7.2956062],[112.7481697,-7.2955372],[112.748219,-7.2952697]]]]}},
{"type":"Feature","properties":{"FID":17,"Label":"Non Sawah"},"geometry":{"type":"MultiPolygon","coordinates":[[[[112.7486624,-7.294882],[112.7490862,-7.2948607],[112.7490754,-7.2951267],[112.7486624,-7.2951374],[112.7486624,-7.294882]]]]}},
{"type":"Feature","properties":{"FID":18,"Label":"Non Sawah"},"geometry":{"type":"MultiPolygon","coordinates":[[[[112.7486463,-7.2951746],[112.7490111,-7.295164],[112.748995,-7.2954087],[112.7486302,-7.2953555],[112.7486463,-7.2951746]]]]}},
{"type":"Feature","properties":{"FID":19,"Label":"Non Sawah"},"geometry":{"type":"MultiPolygon","coordinates":[[[[112.7491096,-7.2948612],[112.7494267,-7.2948097],[112.7494267,-7.2951929],[112.7491269,-7.2951929],[112.7491096,-7.2948612]]]]}},
{"type":"Feature","properties":{"FID":20,"Label":"Non Sawah"},"geometry":{"type":"MultiPolygon","coordinates":[[[[112.748608,-7.2953759],[112.7489885,-7.2954102],[112.7489165,-7.2958563],[112.7485215,-7.2958077],[112.748608,-7.2953759]]]]}},
{"type":"Feature","properties":{"FID":21,"Label":"Non Sawah"},"geometry":{"type":"MultiPolygon","coordinates":[[[[112.747968,-7.293317],[112.7480199,-7.293257],[112.7483716,-7.2934514],[112.7482217,-7.2936888],[112.7478556,-7.2934714],[112.747968,-7.293317]]]]}},
{"type":"Feature","properties":{"FID":22,"Label":"Non Sawah"},"geometry":{"type":"MultiPolygon","coordinates":[[[[112.7478469,-7.2934915],[112.748216,-7.2937031],[112.7479911,-7.2940176],[112.7476394,-7.2938203],[112.7478469,-7.2934915]]]]}},
{"type":"Feature","properties":{"FID":23,"Label":"Non Sawah"},"geometry":{"type":"MultiPolygon","coordinates":[[[[112.7476105,-7.2938489],[112.747968,-7.2940348],[112.7478959,-7.2941492],[112.7474866,-7.2939633],[112.7476105,-7.2938489]]]]}},
{"type":"Feature","properties":{"FID":24,"Label":"Non Sawah"},"geometry":{"type":"MultiPolygon","coordinates":[[[[112.7477605,-7.2927594],[112.7479738,-7.2928852],[112.748017,-7.2928595],[112.7483832,-7.2930768],[112.7482073,-7.2933428],[112.7476336,-7.2929539],[112.7477605,-7.2927594]]]]}},
{"type":"Feature","properties":{"FID":25,"Label":"Non Sawah"},"geometry":{"type":"MultiPolygon","coordinates":[[[[112.7476394,-7.2929996],[112.7479969,-7.2932427],[112.7478527,-7.2934543],[112.7475039,-7.2932112],[112.7476394,-7.2929996]]]]}},
{"type":"Feature","properties":{"FID":26,"Label":"Non Sawah"},"geometry":{"type":"MultiPolygon","coordinates":[[[[112.7474981,-7.2932398],[112.7478325,-7.2934543],[112.747746,-7.2936259],[112.7473597,-7.2934857],[112.7474981,-7.2932398]]]]}},
{"type":"Feature","properties":{"FID":27,"Label":"Non Sawah"},"geometry":{"type":"MultiPolygon","coordinates":[[[[112.747328,-7.2934743],[112.7477057,-7.2936344],[112.7476134,-7.293826],[112.7472214,-7.2937202],[112.747328,-7.2934743]]]]}},
{"type":"Feature","properties":{"FID":28,"Label":"Non Sawah"},"geometry":{"type":"MultiPolygon","coordinates":[[[[112.7472069,-7.2937488],[112.7475241,-7.293806],[112.7474722,-7.2940062],[112.7471377,-7.2939519],[112.7472069,-7.2937488]]]]}},
{"type":"Feature","properties":{"FID":29,"Label":"Non Sawah"},"geometry":{"type":"MultiPolygon","coordinates":[[[[112.7474462,-7.2925592],[112.7475904,-7.2926393],[112.7475269,-7.2927823],[112.747648,-7.2928595],[112.7476077,-7.2929396],[112.747279,-7.2927994],[112.7474462,-7.2925592]]]]}},
{"type":"Feature","properties":{"FID":30,"Label":"Non Sawah"},"geometry":{"type":"MultiPolygon","coordinates":[[[[112.74723,-7.292911],[112.7475644,-7.2930682],[112.7474923,-7.2931855],[112.7474059,-7.2931798],[112.7471493,-7.2930425],[112.74723,-7.292911]]]]}},
{"type":"Feature","properties":{"FID":31,"Label":"Non Sawah"},"geometry":{"type":"MultiPolygon","coordinates":[[[[112.7471377,-7.2930539],[112.7473741,-7.2931798],[112.7473511,-7.293257],[112.7474433,-7.2932999],[112.747403,-7.2933571],[112.7472646,-7.2932913],[112.7471695,-7.2934457],[112.7469676,-7.2933285],[112.7469907,-7.2932884],[112.7471377,-7.2930539]]]]}},
{"type":"Feature","properties":{"FID":32,"Label":"Non Sawah"},"geometry":{"type":"MultiPolygon","coordinates":[[[[112.7469561,-7.293337],[112.7472934,-7.2934972],[112.7472444,-7.2935944],[112.7471377,-7.2935372],[112.7470916,-7.2936058],[112.7468639,-7.2934915],[112.7469561,-7.293337]]]]}},
{"type":"Feature","properties":{"FID":33,"Label":"Non Sawah"},"geometry":{"type":"MultiPolygon","coordinates":[[[[112.746884,-7.2935],[112.7472213,-7.2936945],[112.7470801,-7.2939204],[112.7468033,-7.2938232],[112.7467255,-7.2937116],[112.746884,-7.2935]]]]}},
{"type":"Feature","properties":{"FID":34,"Label":"Non Sawah"},"geometry":{"type":"MultiPolygon","coordinates":[[[[112.7466563,-7.2938032],[112.7469244,-7.2939519],[112.7468091,-7.294275],[112.7464545,-7.2941148],[112.7466563,-7.2938032]]]]}},
{"type":"Feature","properties":{"FID":35,"Label":"Non Sawah"},"geometry":{"type":"MultiPolygon","coordinates":[[[[112.7469936,-7.2939519],[112.7474779,-7.294092],[112.7474059,-7.2943465],[112.7473338,-7.2943865],[112.7469013,-7.2942492],[112.7469936,-7.2939519]]]]}},
{"type":"Feature","properties":{"FID":36,"Label":"Non Sawah"},"geometry":{"type":"MultiPolygon","coordinates":[[[[112.7475096,-7.2941091],[112.7478412,-7.2942064],[112.7476768,-7.294458],[112.7474174,-7.2943665],[112.7475096,-7.2941091]]]]}},
{"type":"Feature","properties":{"FID":37,"Label":"Non Sawah"},"geometry":{"type":"MultiPolygon","coordinates":[[[[112.7464545,-7.294132],[112.7466967,-7.2942435],[112.7466275,-7.2944952],[112.74627,-7.2944094],[112.7463046,-7.2943665],[112.7464545,-7.294132]]]]}},
{"type":"Feature","properties":{"FID":38,"Label":"Non Sawah"},"geometry":{"type":"MultiPolygon","coordinates":[[[[112.7467082,-7.2942521],[112.7468783,-7.2942893],[112.7468235,-7.2945009],[112.7466505,-7.2944609],[112.7467082,-7.2942521]]]]}},
{"type":"Feature","properties":{"FID":39,"Label":"Non Sawah"},"geometry":{"type":"MultiPolygon","coordinates":[[[[112.746884,-7.2942635],[112.7471579,-7.2943379],[112.7470657,-7.2945638],[112.7468379,-7.2945037],[112.746884,-7.2942635]]]]}},
{"type":"Feature","properties":{"FID":40,"Label":"Non Sawah"},"geometry":{"type":"MultiPolygon","coordinates":[[[[112.7471723,-7.2943493],[112.7476768,-7.2944551],[112.7475269,-7.2946467],[112.747083,-7.2945552],[112.7471723,-7.2943493]]]]}},
{"type":"Feature","properties":{"FID":41,"Label":"Non Sawah"},"geometry":{"type":"MultiPolygon","coordinates":[[[[112.7462758,-7.2944609],[112.7465035,-7.2945266],[112.7463767,-7.2948698],[112.7461431,-7.2947726],[112.7462758,-7.2944609]]]]}},
{"type":"Feature","properties":{"FID":42,"Label":"Non Sawah"},"geometry":{"type":"MultiPolygon","coordinates":[[[[112.7465583,-7.2945152],[112.7469677,-7.2946038],[112.7468956,-7.2949327],[112.7465237,-7.2948641],[112.7465583,-7.2945152]]]]}},
{"type":"Feature","properties":{"FID":43,"Label":"Non Sawah"},"geometry":{"type":"MultiPolygon","coordinates":[[[[112.7470282,-7.2945924],[112.7475068,-7.2946925],[112.7474203,-7.2949956],[112.7469994,-7.2949355],[112.7470282,-7.2945924]]]]}},
{"type":"Feature","properties":{"FID":44,"Label":"Non Sawah"},"geometry":{"type":"MultiPolygon","coordinates":[[[[112.7461114,-7.2948297],[112.7464112,-7.2948784],[112.7463075,-7.29513],[112.7460336,-7.2950528],[112.7461114,-7.2948297]]]]}},
{"type":"Feature","properties":{"FID":45,"Label":"Non Sawah"},"geometry":{"type":"MultiPolygon","coordinates":[[[[112.7464516,-7.2948898],[112.7467543,-7.2949355],[112.7466246,-7.2952272],[112.7463565,-7.2951186],[112.7464516,-7.2948898]]]]}},
{"type":"Feature","properties":{"FID":46,"Label":"Non Sawah"},"geometry":{"type":"MultiPolygon","coordinates":[[[[112.7467803,-7.2949384],[112.7470686,-7.294987],[112.7469994,-7.2952816],[112.7466534,-7.2952244],[112.7467803,-7.2949384]]]]}},
{"type":"Feature","properties":{"FID":47,"Label":"Non Sawah"},"geometry":{"type":"MultiPolygon","coordinates":[[[[112.7470858,-7.2949756],[112.7474059,-7.2950156],[112.7473741,-7.2952901],[112.7470311,-7.2952701],[112.7470858,-7.2949756]]]]}},
{"type":"Feature","properties":{"FID":48,"Label":"Non Sawah"},"geometry":{"type":"MultiPolygon","coordinates":[[[[112.748709,-7.2928341],[112.749199,-7.2929227],[112.7490665,-7.2934729],[112.7486135,-7.2933598],[112.748709,-7.2928341]]]]}},
{"type":"Feature","properties":{"FID":49,"Label":"Non Sawah"},"geometry":{"type":"MultiPolygon","coordinates":[[[[112.7488508,-7.2934729],[112.7490511,-7.2935218],[112.7489401,-7.2938213],[112.7487306,-7.2937786],[112.7488508,-7.2934729]]]]}}
]
}
