{
"type": "FeatureCollection",
"name": "sawah",
"crs": { "type": "name", "properties": { "name": "urn:ogc:def:crs:OGC:1.3:CRS84" } },
"features": [
{"type":"Feature","properties":{"FID":0,"Label":"Sawah"},"geometry":{"type":"MultiPolygon","coordinates":[[[[112.6487734,-7.3054842],[112.6489686,-7.3055088],[112.6489005,-7.3060466],[112.6487052,-7.3059821],[112.6487734,-7.3054842]]]]}},
{"type":"Feature","properties":{"FID":1,"Label":"Sawah"},"geometry":{"type":"MultiPolygon","coordinates":[[[[112.6492785,-7.3054903],[112.6493714,-7.3055579],[112.6493188,-7.3059698],[112.6491886,-7.3059636],[112.6492785,-7.3054903]]]]}},
{"type":"Feature","properties":{"FID":2,"Label":"Sawah"},"geometry":{"type":"MultiPolygon","coordinates":[[[[112.6487586,-7.3060356],[112.6489118,-7.3060675],[112.6489037,-7.3063993],[112.6487304,-7.3064033],[112.6487586,-7.3060356]]]]}},
{"type":"Feature","properties":{"FID":3,"Label":"Sawah"},"geometry":{"type":"MultiPolygon","coordinates":[[[[112.6491818,-7.3064153],[112.6493551,-7.3064273],[112.6492866,-7.3069949],[112.6491455,-7.3069669],[112.6491818,-7.3064153]]]]}},
{"type":"Feature","properties":{"FID":4,"Label":"Sawah"},"geometry":{"type":"MultiPolygon","coordinates":[[[[112.6485143,-7.3060371],[112.6487239,-7.3060491],[112.6486836,-7.3065168],[112.6485022,-7.3065048],[112.6485143,-7.3060371]]]]}},
{"type":"Feature","properties":{"FID":5,"Label":"Sawah"},"geometry":{"type":"MultiPolygon","coordinates":[[[[112.6484821,-7.3065328],[112.6486916,-7.3065488],[112.6486916,-7.3069925],[112.648474,-7.3069645],[112.6484821,-7.3065328]]]]}},
{"type":"Feature","properties":{"FID":6,"Label":"Sawah"},"geometry":{"type":"MultiPolygon","coordinates":[[[[112.6484619,-7.3069845],[112.6486957,-7.3070125],[112.6486594,-7.3074202],[112.6484297,-7.3074122],[112.6484619,-7.3069845]]]]}},
{"type":"Feature","properties":{"FID":7,"Label":"Sawah"},"geometry":{"type":"MultiPolygon","coordinates":[[[[112.6484377,-7.3074362],[112.6488085,-7.3074482],[112.6487682,-7.307776],[112.6484377,-7.3078],[112.6484377,-7.3074362]]]]}},
{"type":"Feature","properties":{"FID":8,"Label":"Sawah"},"geometry":{"type":"MultiPolygon","coordinates":[[[[112.6486997,-7.3070045],[112.6488972,-7.3070325],[112.6488166,-7.3074242],[112.6486836,-7.3074082],[112.6486997,-7.3070045]]]]}},
{"type":"Feature","properties":{"FID":9,"Label":"Sawah"},"geometry":{"type":"MultiPolygon","coordinates":[[[[112.6489617,-7.3070285],[112.6491833,-7.3070405],[112.6491511,-7.3074882],[112.6489536,-7.3074962],[112.6489617,-7.3070285]]]]}},
{"type":"Feature","properties":{"FID":10,"Label":"Sawah"},"geometry":{"type":"MultiPolygon","coordinates":[[[[112.6491954,-7.3070565],[112.6494171,-7.3070725],[112.6493848,-7.3074482],[112.6491672,-7.3074722],[112.6491954,-7.3070565]]]]}},
{"type":"Feature","properties":{"FID":11,"Label":"Sawah"},"geometry":{"type":"MultiPolygon","coordinates":[[[[112.648959,-7.3075088],[112.6493903,-7.3074689],[112.6493741,-7.3077647],[112.6489308,-7.3077886],[112.648959,-7.3075088]]]]}},
{"type":"Feature","properties":{"FID":12,"Label":"Sawah"},"geometry":{"type":"MultiPolygon","coordinates":[[[[112.6503736,-7.307205],[112.6506638,-7.307273],[112.6505751,-7.3076128],[112.6503011,-7.3075488],[112.6503736,-7.307205]]]]}},
{"type":"Feature","properties":{"FID":13,"Label":"Sawah"},"geometry":{"type":"MultiPolygon","coordinates":[[[[112.6503011,-7.3075728],[112.650555,-7.3076407],[112.6504784,-7.3079925],[112.6502003,-7.3079206],[112.6503011,-7.3075728]]]]}},
{"type":"Feature","properties":{"FID":14,"Label":"Sawah"},"geometry":{"type":"MultiPolygon","coordinates":[[[[112.6500189,-7.3071371],[112.6503172,-7.307205],[112.6502567,-7.3075248],[112.6499424,-7.3074489],[112.6500189,-7.3071371]]]]}},
{"type":"Feature","properties":{"FID":15,"Label":"Sawah"},"geometry":{"type":"MultiPolygon","coordinates":[[[[112.6494377,-7.3070709],[112.6496953,-7.3070813],[112.6496674,-7.307392],[112.6494168,-7.3073816],[112.6494377,-7.3070709]]]]}},
{"type":"Feature","properties":{"FID":16,"Label":"Sawah"},"geometry":{"type":"MultiPolygon","coordinates":[[[[112.6497231,-7.3071089],[112.6499528,-7.3071331],[112.6498937,-7.3074231],[112.6496953,-7.307392],[112.6497231,-7.3071089]]]]}},
{"type":"Feature","properties":{"FID":17,"Label":"Sawah"},"geometry":{"type":"MultiPolygon","coordinates":[[[[112.6494099,-7.3073954],[112.6497022,-7.30743],[112.6497231,-7.307789],[112.649476,-7.3076889],[112.6494099,-7.3073954]]]]}},
{"type":"Feature","properties":{"FID":18,"Label":"Sawah"},"geometry":{"type":"MultiPolygon","coordinates":[[[[112.649737,-7.3074403],[112.6500538,-7.3075059],[112.6499633,-7.3078132],[112.649744,-7.307789],[112.649737,-7.3074403]]]]}},
{"type":"Feature","properties":{"FID":19,"Label":"Sawah"},"geometry":{"type":"MultiPolygon","coordinates":[[[[112.649918,-7.3067671],[112.6501408,-7.3067879],[112.650092,-7.307064],[112.6498937,-7.3070053],[112.649918,-7.3067671]]]]}},
{"type":"Feature","properties":{"FID":20,"Label":"Sawah"},"geometry":{"type":"MultiPolygon","coordinates":[[[[112.6493716,-7.3064392],[112.6495282,-7.3064599],[112.6495143,-7.306667],[112.6493507,-7.3066567],[112.6493716,-7.3064392]]]]}},
{"type":"Feature","properties":{"FID":21,"Label":"Sawah"},"geometry":{"type":"MultiPolygon","coordinates":[[[[112.6493437,-7.3066912],[112.6495073,-7.306705],[112.649476,-7.3069536],[112.6493194,-7.3069432],[112.6493437,-7.3066912]]]]}},
{"type":"Feature","properties":{"FID":22,"Label":"Sawah"},"geometry":{"type":"MultiPolygon","coordinates":[[[[112.6501721,-7.3068086],[112.6503322,-7.3068224],[112.6502835,-7.3070882],[112.6501268,-7.3070502],[112.6501721,-7.3068086]]]]}},
{"type":"Feature","properties":{"FID":23,"Label":"Sawah"},"geometry":{"type":"MultiPolygon","coordinates":[[[[112.6495491,-7.3064703],[112.6497196,-7.3064703],[112.6496953,-7.3066843],[112.6495421,-7.3066705],[112.6495491,-7.3064703]]]]}},
{"type":"Feature","properties":{"FID":24,"Label":"Sawah"},"geometry":{"type":"MultiPolygon","coordinates":[[[[112.6495595,-7.3067602],[112.6497092,-7.3067119],[112.6496744,-7.3069605],[112.6495143,-7.3069328],[112.6495595,-7.3067602]]]]}},
{"type":"Feature","properties":{"FID":25,"Label":"Sawah"},"geometry":{"type":"MultiPolygon","coordinates":[[[[112.6503844,-7.3068707],[112.650548,-7.3068603],[112.6505027,-7.3071193],[112.6503287,-7.3070778],[112.6503844,-7.3068707]]]]}},
{"type":"Feature","properties":{"FID":26,"Label":"Sawah"},"geometry":{"type":"MultiPolygon","coordinates":[[[[112.6505654,-7.3068742],[112.6507359,-7.3069225],[112.6506663,-7.307178],[112.6505271,-7.3071331],[112.6505654,-7.3068742]]]]}},
{"type":"Feature","properties":{"FID":27,"Label":"Sawah"},"geometry":{"type":"MultiPolygon","coordinates":[[[[112.648411,-7.3078235],[112.6485293,-7.3078166],[112.6485398,-7.3079133],[112.648404,-7.3079202],[112.648411,-7.3078235]]]]}},
{"type":"Feature","properties":{"FID":28,"Label":"Sawah"},"geometry":{"type":"MultiPolygon","coordinates":[[[[112.6483971,-7.3079202],[112.6485293,-7.3079271],[112.6485293,-7.308003],[112.6484005,-7.3079961],[112.6483971,-7.3079202]]]]}},
{"type":"Feature","properties":{"FID":29,"Label":"Sawah"},"geometry":{"type":"MultiPolygon","coordinates":[[[[112.6483936,-7.308003],[112.6485084,-7.3080272],[112.6484876,-7.3081411],[112.6484005,-7.3081308],[112.6483936,-7.308003]]]]}},
{"type":"Feature","properties":{"FID":30,"Label":"Sawah"},"geometry":{"type":"MultiPolygon","coordinates":[[[[112.6483901,-7.3081446],[112.6484771,-7.3081618],[112.6484423,-7.3084],[112.6483797,-7.3084035],[112.6483901,-7.3081446]]]]}},
{"type":"Feature","properties":{"FID":31,"Label":"Sawah"},"geometry":{"type":"MultiPolygon","coordinates":[[[[112.6484736,-7.3082309],[112.6485467,-7.3082654],[112.6485467,-7.3085554],[112.6484597,-7.3085243],[112.6484736,-7.3082309]]]]}},
{"type":"Feature","properties":{"FID":32,"Label":"Sawah"},"geometry":{"type":"MultiPolygon","coordinates":[[[[112.6485676,-7.308255],[112.6486616,-7.3082688],[112.6486546,-7.3085657],[112.6485711,-7.3085519],[112.6485676,-7.308255]]]]}},
{"type":"Feature","properties":{"FID":33,"Label":"Sawah"},"geometry":{"type":"MultiPolygon","coordinates":[[[[112.6484493,-7.3085761],[112.6485502,-7.3085968],[112.6485224,-7.3089834],[112.6484493,-7.3089627],[112.6484493,-7.3085761]]]]}},
{"type":"Feature","properties":{"FID":34,"Label":"Sawah"},"geometry":{"type":"MultiPolygon","coordinates":[[[[112.6486233,-7.3086037],[112.6487521,-7.3086037],[112.6487033,-7.3089765],[112.6486163,-7.3089938],[112.6486233,-7.3086037]]]]}},
{"type":"Feature","properties":{"FID":35,"Label":"Sawah"},"geometry":{"type":"MultiPolygon","coordinates":[[[[112.6488078,-7.3082896],[112.6489052,-7.3083137],[112.6488704,-7.3085761],[112.6487486,-7.3085795],[112.6488078,-7.3082896]]]]}},
{"type":"Feature","properties":{"FID":36,"Label":"Sawah"},"geometry":{"type":"MultiPolygon","coordinates":[[[[112.6483264,-7.3089792],[112.6484559,-7.3089921],[112.648443,-7.309371],[112.6483199,-7.3093582],[112.6483264,-7.3089792]]]]}},
{"type":"Feature","properties":{"FID":37,"Label":"Sawah"},"geometry":{"type":"MultiPolygon","coordinates":[[[[112.6485274,-7.3089827],[112.6487188,-7.3090345],[112.6486631,-7.3094212],[112.6484891,-7.3093866],[112.6485274,-7.3089827]]]]}},
{"type":"Feature","properties":{"FID":38,"Label":"Sawah"},"geometry":{"type":"MultiPolygon","coordinates":[[[[112.6438626,-7.3076665],[112.6439531,-7.3076838],[112.6439114,-7.307884],[112.6438418,-7.3078702],[112.6438626,-7.3076665]]]]}},
{"type":"Feature","properties":{"FID":39,"Label":"Sawah"},"geometry":{"type":"MultiPolygon","coordinates":[[[[112.6440227,-7.3076838],[112.6441272,-7.3076907],[112.6440715,-7.307922],[112.6440088,-7.3078978],[112.6440227,-7.3076838]]]]}},
{"type":"Feature","properties":{"FID":40,"Label":"Sawah"},"geometry":{"type":"MultiPolygon","coordinates":[[[[112.6440193,-7.3079599],[112.6441098,-7.3079807],[112.644068,-7.308281],[112.6439705,-7.3082396],[112.6440193,-7.3079599]]]]}},
{"type":"Feature","properties":{"FID":41,"Label":"Sawah"},"geometry":{"type":"MultiPolygon","coordinates":[[[[112.6439601,-7.3082775],[112.6440645,-7.3082948],[112.6440193,-7.3085296],[112.6439357,-7.3085226],[112.6439601,-7.3082775]]]]}},
{"type":"Feature","properties":{"FID":42,"Label":"Sawah"},"geometry":{"type":"MultiPolygon","coordinates":[[[[112.6438209,-7.3079358],[112.6439392,-7.3079461],[112.6438975,-7.3082672],[112.6437861,-7.3082396],[112.6438209,-7.3079358]]]]}},
{"type":"Feature","properties":{"FID":43,"Label":"Sawah"},"geometry":{"type":"MultiPolygon","coordinates":[[[[112.6438139,-7.3085088],[112.6439357,-7.308533],[112.6439044,-7.3087919],[112.6437896,-7.3087988],[112.6438139,-7.3085088]]]]}},
{"type":"Feature","properties":{"FID":44,"Label":"Sawah"},"geometry":{"type":"MultiPolygon","coordinates":[[[[112.6440332,-7.3085468],[112.6441828,-7.3085744],[112.6441376,-7.3088748],[112.6439845,-7.3088472],[112.6440332,-7.3085468]]]]}},
{"type":"Feature","properties":{"FID":45,"Label":"Sawah"},"geometry":{"type":"MultiPolygon","coordinates":[[[[112.6439114,-7.3088713],[112.6441341,-7.3089058],[112.6440889,-7.309327],[112.6438557,-7.3092752],[112.6439114,-7.3088713]]]]}},
{"type":"Feature","properties":{"FID":46,"Label":"Sawah"},"geometry":{"type":"MultiPolygon","coordinates":[[[[112.6440854,-7.309327],[112.6442525,-7.3093443],[112.6442142,-7.3096619],[112.6440367,-7.3096273],[112.6440854,-7.309327]]]]}},
{"type":"Feature","properties":{"FID":47,"Label":"Sawah"},"geometry":{"type":"MultiPolygon","coordinates":[[[[112.6439253,-7.3093408],[112.6440262,-7.309365],[112.6439845,-7.3095997],[112.643793,-7.3095687],[112.6439253,-7.3093408]]]]}},
{"type":"Feature","properties":{"FID":48,"Label":"Sawah"},"geometry":{"type":"MultiPolygon","coordinates":[[[[112.6436573,-7.3092683],[112.6438626,-7.3092959],[112.6437374,-7.3095583],[112.6436434,-7.3095514],[112.6436573,-7.3092683]]]]}},
{"type":"Feature","properties":{"FID":49,"Label":"Sawah"},"geometry":{"type":"MultiPolygon","coordinates":[[[[112.6437165,-7.3088057],[112.643887,-7.3088575],[112.6438209,-7.3092683],[112.6436643,-7.3092442],[112.6437165,-7.3088057]]]]}}
]
}
